OBJECT_NAME,OBJECT_ID,EPOCH,MEAN_MOTION,ECCENTRICITY,INCLINATION,RA_OF_ASC_NODE,ARG_OF_PERICENTER,MEAN_ANOMALY,EPHEMERIS_TYPE,CLASSIFICATION_TYPE,NORAD_CAT_ID,ELEMENT_SET_NO,REV_AT_EPOCH,BSTAR,MEAN_MOTION_DOT,MEAN_MOTION_DDOT
STARLINK-37630,2026-119F,2026-06-19T22:00:01.999584,15.49134902,.00010158,97.2856,196.6108,81.9429,197.4900,0,U,69301,999,448,.13677771E-2,.74867E-3,0
STARLINK-37804,2026-119G,2026-06-19T22:00:01.999584,15.49138652,.00011938,97.2855,196.6075,89.9393,182.3656,0,U,69302,999,448,.14161377E-2,.77555E-3,0
STARLINK-37730,2026-119H,2026-06-19T22:00:01.999584,15.56563845,.00018706,97.2847,196.8419,72.3151,27.8102,0,U,69303,999,448,-.39196352E-1,-.2428188E-1,0
STARLINK-37731,2026-119J,2026-06-19T14:39:13.060512,15.49210446,.00014937,97.2854,196.2949,80.4907,279.6513,0,U,69304,999,440,.47155876E-3,.25659E-3,0
STARLINK-37734,2026-119K,2026-06-19T22:00:01.999584,15.49095334,.00005879,97.2858,196.7723,277.5060,21.8166,0,U,69305,999,448,.16540341E-2,.90612E-3,0
STARLINK-37701,2026-119L,2026-06-19T22:00:01.999584,15.53509075,.00016045,97.2849,196.8301,73.3694,2.7089,0,U,69306,999,448,-.46621868E-1,-.2612278E-1,0
STARLINK-37732,2026-119M,2026-06-19T22:00:01.999584,15.60208850,.00020721,97.2855,196.8797,71.9159,109.9651,0,U,69307,999,448,-.30609481E-1,-.2206158E-1,0
STARLINK-37689,2026-119N,2026-06-19T22:00:01.999584,15.49137662,.00003534,97.2856,196.6127,78.3224,207.1068,0,U,69308,999,448,.1457974E-2,.79869E-3,0
STARLINK-37619,2026-119P,2026-06-19T22:00:01.999584,15.58608787,.00019589,97.2853,196.8681,68.8802,89.7718,0,U,69309,999,448,-.35922323E-1,-.2406831E-1,0
STARLINK-37794,2026-119Q,2026-06-19T22:00:01.999584,15.49568785,.00014474,97.2852,196.7724,75.8097,218.2152,0,U,69310,999,448,-.11993051E-1,-.61219E-2,0
STARLINK-37795,2026-119R,2026-06-19T22:00:01.999584,15.49134177,.00003713,97.2852,196.6241,79.3996,231.4001,0,U,69311,999,448,.1558233E-2,.85418E-3,0
STARLINK-37790,2026-119S,2026-06-19T22:00:01.999584,15.51944360,.0001999,97.2848,196.8328,64.8473,10.9616,0,U,69312,999,448,-.51072938E-1,-.2693082E-1,0
STARLINK-37676,2026-119T,2026-06-19T22:00:01.999584,15.60726613,.00018705,97.2853,196.9027,87.4713,148.0657,0,U,69313,999,448,-.33682201E-1,-.2442171E-1,0
STARLINK-37617,2026-119U,2026-06-19T22:00:01.999584,15.53539463,.00015444,97.2852,196.8390,63.6213,24.6213,0,U,69314,999,448,-.42992484E-1,-.2387357E-1,0
STARLINK-37627,2026-119V,2026-06-19T22:00:01.999584,15.52219682,.00023343,97.2850,196.8442,67.0374,35.9334,0,U,69315,999,448,-.55644893E-1,-.2927759E-1,0
STARLINK-37738,2026-119W,2026-06-19T22:00:01.999584,15.56505958,.0001627,97.2850,196.8385,68.1503,18.3511,0,U,69316,999,448,-.40466968E-1,-.2491516E-1,0
STARLINK-37799,2026-119X,2026-06-19T22:00:01.999584,15.63743136,.00016717,97.2852,196.9124,93.4367,176.5135,0,U,69317,999,443,-.30983328E-1,-.2516411E-1,0
STARLINK-37802,2026-119Y,2026-06-19T22:00:01.999584,15.58698933,.00020275,97.2853,196.8931,80.7795,130.4577,0,U,69318,999,448,-.36343384E-1,-.2438775E-1,0
STARLINK-37803,2026-119Z,2026-06-19T22:00:01.999584,15.50403271,.00018677,97.2855,196.7709,87.3704,201.6236,0,U,69319,999,443,-.3271647E-1,-.166466E-1,0
GUOWANG TEST OBJECT A,2026-120A,2026-06-07T11:06:12.288672,15.38803685,.00095994,54.9967,71.5399,294.3963,65.6063,0,U,69320,999,119,.24095813E-3,.9002E-4,0
GUOWANG TEST OBJECT B,2026-120B,2026-06-19T17:41:19.279680,15.38766949,.00104197,54.9984,16.2566,337.3538,22.7029,0,U,69321,999,308,.28601426E-3,.10751E-3,0
GUOWANG TEST OBJECT C,2026-120C,2026-06-07T21:56:00.773376,15.39284097,.00098504,54.9968,69.4792,309.3319,50.6835,0,U,69322,999,126,.41735581E-3,.16153E-3,0
GUOWANG TEST OBJECT D,2026-120D,2026-06-19T22:15:50.981760,15.38597998,.00114072,54.9988,15.3534,352.0112,8.0732,0,U,69323,999,311,.47685252E-4,.1452E-4,0
QIANFAN-163,2026-121A,2026-06-19T19:13:52.988736,13.59758594,.00203567,89.0159,300.2518,181.2411,178.8699,0,U,69325,999,251,.27891085E-4,.33E-6,0
QIANFAN-164,2026-121B,2026-06-11T09:53:52.001952,13.60355109,.0019383,89.0157,301.0998,205.3125,154.7084,0,U,69326,999,137,.13228E-3,.112E-5,0
SZ-22 MODULE,2025-272C,2026-06-19T17:40:02.806176,15.60302451,.00062766,41.4804,306.6118,109.5394,250.6123,0,U,69328,999,372,.21498725E-3,.17804E-3,0
STARLINK-37733,2026-122A,2026-06-18T04:13:56.398944,15.80450219,.00014071,97.2827,198.6747,137.8378,222.2998,0,U,69329,999,231,-.23398453E-2,-.420355E-2,0
STARLINK-37772,2026-122B,2026-06-19T22:00:01.999584,15.73680842,.00018516,97.2854,200.5159,73.8182,103.0972,0,U,69330,999,374,-.16198772E-1,-.1961707E-1,0
STARLINK-37768,2026-122C,2026-06-19T22:00:01.999584,15.60695320,.00014429,97.2854,200.4787,69.5351,10.6829,0,U,69331,999,374,-.33463213E-1,-.2425339E-1,0
