STARLINK-37630          
1 69301U 26119F   26170.91668981  .00074867  00000+0  13678-2 0  9990
2 69301  97.2856 196.6108 0001015  81.9429 197.4900 15.49134902  4483
STARLINK-37804          
1 69302U 26119G   26170.91668981  .00077555  00000+0  14161-2 0  9996
2 69302  97.2855 196.6075 0001193  89.9393 182.3656 15.49138652  4488
STARLINK-37730          
1 69303U 26119H   26170.91668981 -.02428188  00000+0 -39196-1 0  9997
2 69303  97.2847 196.8419 0001870  72.3151  27.8102 15.56563845  4487
STARLINK-37731          
1 69304U 26119J   26170.61056783  .00025659  00000+0  47156-3 0  9995
2 69304  97.2854 196.2949 0001493  80.4907 279.6513 15.49210446  4401
STARLINK-37734          
1 69305U 26119K   26170.91668981  .00090612  00000+0  16540-2 0  9991
2 69305  97.2858 196.7723 0000587 277.5060  21.8166 15.49095334  4489
STARLINK-37701          
1 69306U 26119L   26170.91668981 -.02612278  00000+0 -46622-1 0  9997
2 69306  97.2849 196.8301 0001604  73.3694   2.7089 15.53509075  4488
STARLINK-37732          
1 69307U 26119M   26170.91668981 -.02206158  00000+0 -30609-1 0  9992
2 69307  97.2855 196.8797 0002072  71.9159 109.9651 15.60208850  4485
STARLINK-37689          
1 69308U 26119N   26170.91668981  .00079869  00000+0  14580-2 0  9997
2 69308  97.2856 196.6127 0000353  78.3224 207.1068 15.49137662  4488
STARLINK-37619          
1 69309U 26119P   26170.91668981 -.02406831  00000+0 -35922-1 0  9997
2 69309  97.2853 196.8681 0001958  68.8802  89.7718 15.58608787  4488
STARLINK-37794          
1 69310U 26119Q   26170.91668981 -.00612190  00000+0 -11993-1 0  9996
2 69310  97.2852 196.7724 0001447  75.8097 218.2152 15.49568785  4487
STARLINK-37795          
1 69311U 26119R   26170.91668981  .00085418  00000+0  15582-2 0  9991
2 69311  97.2852 196.6241 0000371  79.3996 231.4001 15.49134177  4487
STARLINK-37790          
1 69312U 26119S   26170.91668981 -.02693082  00000+0 -51073-1 0  9992
2 69312  97.2848 196.8328 0001999  64.8473  10.9616 15.51944360  4485
STARLINK-37676          
1 69313U 26119T   26170.91668981 -.02442171  00000+0 -33682-1 0  9990
2 69313  97.2853 196.9027 0001870  87.4713 148.0657 15.60726613  4482
STARLINK-37617          
1 69314U 26119U   26170.91668981 -.02387357  00000+0 -42992-1 0  9999
2 69314  97.2852 196.8390 0001544  63.6213  24.6213 15.53539463  4487
STARLINK-37627          
1 69315U 26119V   26170.91668981 -.02927759  00000+0 -55645-1 0  9995
2 69315  97.2850 196.8442 0002334  67.0374  35.9334 15.52219682  4484
STARLINK-37738          
1 69316U 26119W   26170.91668981 -.02491516  00000+0 -40467-1 0  9999
2 69316  97.2850 196.8385 0001627  68.1503  18.3511 15.56505958  4481
STARLINK-37799          
1 69317U 26119X   26170.91668981 -.02516411  00000+0 -30983-1 0  9994
2 69317  97.2852 196.9124 0001671  93.4367 176.5135 15.63743136  4438
STARLINK-37802          
1 69318U 26119Y   26170.91668981 -.02438775  00000+0 -36343-1 0  9997
2 69318  97.2853 196.8931 0002027  80.7795 130.4577 15.58698933  4487
STARLINK-37803          
1 69319U 26119Z   26170.91668981 -.01664660  00000+0 -32716-1 0  9991
2 69319  97.2855 196.7709 0001867  87.3704 201.6236 15.50403271  4435
GUOWANG TEST OBJECT A   
1 69320U 26120A   26158.46264223  .00009002  00000+0  24096-3 0  9996
2 69320  54.9967  71.5399 0009599 294.3963  65.6063 15.38803685  1198
GUOWANG TEST OBJECT B   
1 69321U 26120B   26170.73702870  .00010751  00000+0  28601-3 0  9995
2 69321  54.9984  16.2566 0010419 337.3538  22.7029 15.38766949  3086
GUOWANG TEST OBJECT C   
1 69322U 26120C   26158.91389784  .00016153  00000+0  41736-3 0  9993
2 69322  54.9968  69.4792 0009850 309.3319  50.6835 15.39284097  1266
GUOWANG TEST OBJECT D   
1 69323U 26120D   26170.92767340  .00001452  00000+0  47685-4 0  9993
2 69323  54.9988  15.3534 0011407 352.0112   8.0732 15.38597998  3115
QIANFAN-163             
1 69325U 26121A   26170.80130774  .00000033  00000+0  27891-4 0  9999
2 69325  89.0159 300.2518 0020356 181.2411 178.8699 13.59758594  2514
QIANFAN-164             
1 69326U 26121B   26162.41240743  .00000112  00000+0  13228-3 0  9992
2 69326  89.0157 301.0998 0019383 205.3125 154.7084 13.60355109  1373
SZ-22 MODULE            
1 69328U 25272C   26170.73614359  .00017804  00000+0  21499-3 0  9997
2 69328  41.4804 306.6118 0006276 109.5394 250.6123 15.60302451  3726
STARLINK-37733          
1 69329U 26122A   26169.17634721 -.00420355  00000+0 -23398-2 0  9994
2 69329  97.2827 198.6747 0001407 137.8378 222.2998 15.80450219  2312
STARLINK-37772          
1 69330U 26122B   26170.91668981 -.01961707  00000+0 -16199-1 0  9997
2 69330  97.2854 200.5159 0001851  73.8182 103.0972 15.73680842  3744
STARLINK-37768          
1 69331U 26122C   26170.91668981 -.02425339  00000+0 -33463-1 0  9998
2 69331  97.2854 200.4787 0001442  69.5351  10.6829 15.60695320  3744
